[{"OBJECT_NAME":"STARLINK-31969","OBJECT_ID":"2024-100E","EPOCH":"2025-09-20T08:01:49.163520","MEAN_MOTION":15.27575424,"ECCENTRICITY":0.00013175,"INCLINATION":43.0021,"RA_OF_ASC_NODE":3.9822,"ARG_OF_PERICENTER":209.4413,"MEAN_ANOMALY":150.6365,"EPHEMERIS_TYPE":0,"CLASSIFICATION_TYPE":"U","NORAD_CAT_ID":59889,"ELEMENT_SET_NO":999,"REV_AT_EPOCH":7514,"BSTAR":-3.0255772e-5,"MEAN_MOTION_DOT":-1.094e-5,"MEAN_MOTION_DDOT":0},{"OBJECT_NAME":"STARLINK-31951","OBJECT_ID":"2024-100F","EPOCH":"2025-09-19T14:26:52.882080","MEAN_MOTION":15.27585571,"ECCENTRICITY":6.343e-5,"INCLINATION":43.0017,"RA_OF_ASC_NODE":11.4037,"ARG_OF_PERICENTER":289.1264,"MEAN_ANOMALY":70.9519,"EPHEMERIS_TYPE":0,"CLASSIFICATION_TYPE":"U","NORAD_CAT_ID":59890,"ELEMENT_SET_NO":999,"REV_AT_EPOCH":7489,"BSTAR":5.1703522e-5,"MEAN_MOTION_DOT":1.161e-5,"MEAN_MOTION_DDOT":0},{"OBJECT_NAME":"STARLINK-31949","OBJECT_ID":"2024-100G","EPOCH":"2025-09-20T14:15:53.580960","MEAN_MOTION":15.27577741,"ECCENTRICITY":0.00026052,"INCLINATION":43.0103,"RA_OF_ASC_NODE":5.9481,"ARG_OF_PERICENTER":283.9833,"MEAN_ANOMALY":76.0729,"EPHEMERIS_TYPE":0,"CLASSIFICATION_TYPE":"U","NORAD_CAT_ID":59891,"ELEMENT_SET_NO":999,"REV_AT_EPOCH":7504,"BSTAR":-1.32821e-7,"MEAN_MOTION_DOT":-2.66e-6,"MEAN_MOTION_DDOT":0},{"OBJECT_NAME":"STARLINK-31977","OBJECT_ID":"2024-100H","EPOCH":"2025-09-19T14:15:19.893600","MEAN_MOTION":15.2756125,"ECCENTRICITY":2.581e-5,"INCLINATION":43.001,"RA_OF_ASC_NODE":4.421,"ARG_OF_PERICENTER":202.8687,"MEAN_ANOMALY":157.2153,"EPHEMERIS_TYPE":0,"CLASSIFICATION_TYPE":"U","NORAD_CAT_ID":59892,"ELEMENT_SET_NO":999,"REV_AT_EPOCH":7507,"BSTAR":0.00022049743,"MEAN_MOTION_DOT":5.807e-5,"MEAN_MOTION_DDOT":0},{"OBJECT_NAME":"STARLINK-31963","OBJECT_ID":"2024-100J","EPOCH":"2025-09-20T06:45:27.894240","MEAN_MOTION":15.2757555,"ECCENTRICITY":7.279e-5,"INCLINATION":43.0039,"RA_OF_ASC_NODE":7.9028,"ARG_OF_PERICENTER":270.2606,"MEAN_ANOMALY":89.8163,"EPHEMERIS_TYPE":0,"CLASSIFICATION_TYPE":"U","NORAD_CAT_ID":59893,"ELEMENT_SET_NO":999,"REV_AT_EPOCH":7509,"BSTAR":1.235789e-6,"MEAN_MOTION_DOT":-2.28e-6,"MEAN_MOTION_DDOT":0},{"OBJECT_NAME":"STARLINK-31961","OBJECT_ID":"2024-100K","EPOCH":"2025-09-20T07:56:57.970464","MEAN_MOTION":15.27573837,"ECCENTRICITY":0.00014629,"INCLINATION":43.0056,"RA_OF_ASC_NODE":0.494,"ARG_OF_PERICENTER":280.9838,"MEAN_ANOMALY":79.0849,"EPHEMERIS_TYPE":0,"CLASSIFICATION_TYPE":"U","NORAD_CAT_ID":59894,"ELEMENT_SET_NO":999,"REV_AT_EPOCH":7518,"BSTAR":9.654414e-6,"MEAN_MOTION_DOT":3.0e-8,"MEAN_MOTION_DDOT":0},{"OBJECT_NAME":"STARLINK-31964","OBJECT_ID":"2024-100L","EPOCH":"2025-09-19T14:12:05.086656","MEAN_MOTION":15.27601063,"ECCENTRICITY":6.977e-5,"INCLINATION":43.0008,"RA_OF_ASC_NODE":11.3232,"ARG_OF_PERICENTER":251.6102,"MEAN_ANOMALY":108.4674,"EPHEMERIS_TYPE":0,"CLASSIFICATION_TYPE":"U","NORAD_CAT_ID":59895,"ELEMENT_SET_NO":999,"REV_AT_EPOCH":7494,"BSTAR":0.00036342393,"MEAN_MOTION_DOT":9.758e-5,"MEAN_MOTION_DDOT":0},{"OBJECT_NAME":"STARLINK-31905","OBJECT_ID":"2024-100M","EPOCH":"2025-09-20T08:16:37.471296","MEAN_MOTION":15.27574615,"ECCENTRICITY":9.872e-5,"INCLINATION":43.0047,"RA_OF_ASC_NODE":4.0586,"ARG_OF_PERICENTER":239.7098,"MEAN_ANOMALY":120.3656,"EPHEMERIS_TYPE":0,"CLASSIFICATION_TYPE":"U","NORAD_CAT_ID":59896,"ELEMENT_SET_NO":999,"REV_AT_EPOCH":7514,"BSTAR":-1.8926057e-5,"MEAN_MOTION_DOT":-7.83e-6,"MEAN_MOTION_DDOT":0},{"OBJECT_NAME":"STARLINK-31928","OBJECT_ID":"2024-100N","EPOCH":"2025-09-20T08:36:14.931360","MEAN_MOTION":15.27581923,"ECCENTRICITY":0.00020366,"INCLINATION":43.0041,"RA_OF_ASC_NODE":7.6237,"ARG_OF_PERICENTER":292.6654,"MEAN_ANOMALY":67.3983,"EPHEMERIS_TYPE":0,"CLASSIFICATION_TYPE":"U","NORAD_CAT_ID":59897,"ELEMENT_SET_NO":999,"REV_AT_EPOCH":7500,"BSTAR":0.00014159859,"MEAN_MOTION_DOT":3.636e-5,"MEAN_MOTION_DDOT":0},{"OBJECT_NAME":"STARLINK-31953","OBJECT_ID":"2024-100P","EPOCH":"2025-09-20T08:11:04.794144","MEAN_MOTION":15.27569699,"ECCENTRICITY":8.733e-5,"INCLINATION":43.0043,"RA_OF_ASC_NODE":4.0304,"ARG_OF_PERICENTER":243.366,"MEAN_ANOMALY":116.7102,"EPHEMERIS_TYPE":0,"CLASSIFICATION_TYPE":"U","NORAD_CAT_ID":59898,"ELEMENT_SET_NO":999,"REV_AT_EPOCH":7514,"BSTAR":-3.0086563e-5,"MEAN_MOTION_DOT":-1.089e-5,"MEAN_MOTION_DDOT":0},{"OBJECT_NAME":"STARLINK-31942","OBJECT_ID":"2024-100Q","EPOCH":"2025-09-20T14:04:47.650368","MEAN_MOTION":15.27572535,"ECCENTRICITY":0.00031235,"INCLINATION":43.0039,"RA_OF_ASC_NODE":5.8912,"ARG_OF_PERICENTER":282.7942,"MEAN_ANOMALY":77.2561,"EPHEMERIS_TYPE":0,"CLASSIFICATION_TYPE":"U","NORAD_CAT_ID":59899,"ELEMENT_SET_NO":999,"REV_AT_EPOCH":7513,"BSTAR":8.162839e-6,"MEAN_MOTION_DOT":-3.8e-7,"MEAN_MOTION_DDOT":0},{"OBJECT_NAME":"STARLINK-31676","OBJECT_ID":"2024-100R","EPOCH":"2025-09-20T08:14:05.081568","MEAN_MOTION":15.27558243,"ECCENTRICITY":0.00010923,"INCLINATION":43.0069,"RA_OF_ASC_NODE":7.5056,"ARG_OF_PERICENTER":264.6657,"MEAN_ANOMALY":95.407,"EPHEMERIS_TYPE":0,"CLASSIFICATION_TYPE":"U","NORAD_CAT_ID":59900,"ELEMENT_SET_NO":999,"REV_AT_EPOCH":7499,"BSTAR":-6.4497861e-5,"MEAN_MOTION_DOT":-2.035e-5,"MEAN_MOTION_DDOT":0},{"OBJECT_NAME":"STARLINK-31908","OBJECT_ID":"2024-100S","EPOCH":"2025-09-20T07:51:24.694560","MEAN_MOTION":15.27575169,"ECCENTRICITY":8.319e-5,"INCLINATION":43.0031,"RA_OF_ASC_NODE":0.4624,"ARG_OF_PERICENTER":238.7643,"MEAN_ANOMALY":121.3127,"EPHEMERIS_TYPE":0,"CLASSIFICATION_TYPE":"U","NORAD_CAT_ID":59901,"ELEMENT_SET_NO":999,"REV_AT_EPOCH":7517,"BSTAR":1.012811e-6,"MEAN_MOTION_DOT":-2.34e-6,"MEAN_MOTION_DDOT":0},{"OBJECT_NAME":"STARLINK-31914","OBJECT_ID":"2024-100T","EPOCH":"2025-09-20T08:30:43.372224","MEAN_MOTION":15.27589948,"ECCENTRICITY":0.00012069,"INCLINATION":43.0044,"RA_OF_ASC_NODE":7.5873,"ARG_OF_PERICENTER":261.0977,"MEAN_ANOMALY":98.9738,"EPHEMERIS_TYPE":0,"CLASSIFICATION_TYPE":"U","NORAD_CAT_ID":59902,"ELEMENT_SET_NO":999,"REV_AT_EPOCH":7499,"BSTAR":-8.2271266e-5,"MEAN_MOTION_DOT":-2.526e-5,"MEAN_MOTION_DDOT":0},{"OBJECT_NAME":"STARLINK-31850","OBJECT_ID":"2024-100U","EPOCH":"2025-09-20T07:35:12.587424","MEAN_MOTION":15.27573186,"ECCENTRICITY":9.157e-5,"INCLINATION":43.0003,"RA_OF_ASC_NODE":7.2848,"ARG_OF_PERICENTER":271.6021,"MEAN_ANOMALY":88.4726,"EPHEMERIS_TYPE":0,"CLASSIFICATION_TYPE":"U","NORAD_CAT_ID":59903,"ELEMENT_SET_NO":999,"REV_AT_EPOCH":7504,"BSTAR":-3.7232469e-5,"MEAN_MOTION_DOT":-1.286e-5,"MEAN_MOTION_DDOT":0},{"OBJECT_NAME":"STARLINK-31924","OBJECT_ID":"2024-100V","EPOCH":"2025-09-20T14:10:20.600544","MEAN_MOTION":15.27577017,"ECCENTRICITY":7.117e-5,"INCLINATION":43.0024,"RA_OF_ASC_NODE":5.9181,"ARG_OF_PERICENTER":231.2788,"MEAN_ANOMALY":128.8,"EPHEMERIS_TYPE":0,"CLASSIFICATION_TYPE":"U","NORAD_CAT_ID":59904,"ELEMENT_SET_NO":999,"REV_AT_EPOCH":7513,"BSTAR":2.5080272e-5,"MEAN_MOTION_DOT":4.28e-6,"MEAN_MOTION_DDOT":0},{"OBJECT_NAME":"STARLINK-31898","OBJECT_ID":"2024-100W","EPOCH":"2025-09-20T06:33:12.776256","MEAN_MOTION":15.27576765,"ECCENTRICITY":0.00011387,"INCLINATION":43,"RA_OF_ASC_NODE":4.3751,"ARG_OF_PERICENTER":174.833,"MEAN_ANOMALY":185.2534,"EPHEMERIS_TYPE":0,"CLASSIFICATION_TYPE":"U","NORAD_CAT_ID":59905,"ELEMENT_SET_NO":999,"REV_AT_EPOCH":7512,"BSTAR":-2.3178685e-5,"MEAN_MOTION_DOT":-9.0e-6,"MEAN_MOTION_DDOT":0}]
