STARLINK-31969          
1 59889U 24100E   25263.33459680 -.00001094  00000+0 -30256-4 0  9997
2 59889  43.0021   3.9822 0001317 209.4413 150.6365 15.27575424 75145
STARLINK-31951          
1 59890U 24100F   25262.60200095  .00001161  00000+0  51704-4 0  9996
2 59890  43.0017  11.4037 0000634 289.1264  70.9519 15.27585571 74894
STARLINK-31949          
1 59891U 24100G   25263.59437015 -.00000266  00000+0 -13282-6 0  9998
2 59891  43.0103   5.9481 0002605 283.9833  76.0729 15.27577741 75044
STARLINK-31977          
1 59892U 24100H   25262.59398025  .00005807  00000+0  22050-3 0  9999
2 59892  43.0010   4.4210 0000258 202.8687 157.2153 15.27561250 75079
STARLINK-31963          
1 59893U 24100J   25263.28157285 -.00000228  00000+0  12358-5 0  9993
2 59893  43.0039   7.9028 0000727 270.2606  89.8163 15.27575550 75098
STARLINK-31961          
1 59894U 24100K   25263.33122651  .00000003  00000+0  96544-5 0  9998
2 59894  43.0056   0.4940 0001462 280.9838  79.0849 15.27573837 75189
STARLINK-31964          
1 59895U 24100L   25262.59172554  .00009758  00000+0  36342-3 0  9997
2 59895  43.0008  11.3232 0000697 251.6102 108.4674 15.27601063 74949
STARLINK-31905          
1 59896U 24100M   25263.34487814 -.00000783  00000+0 -18926-4 0  9990
2 59896  43.0047   4.0586 0000987 239.7098 120.3656 15.27574615 75145
STARLINK-31928          
1 59897U 24100N   25263.35850615  .00003636  00000+0  14160-3 0  9998
2 59897  43.0041   7.6237 0002036 292.6654  67.3983 15.27581923 75003
STARLINK-31953          
1 59898U 24100P   25263.34102771 -.00001089  00000+0 -30087-4 0  9990
2 59898  43.0043   4.0304 0000873 243.3660 116.7102 15.27569699 75142
STARLINK-31942          
1 59899U 24100Q   25263.58666262 -.00000038  00000+0  81628-5 0  9997
2 59899  43.0039   5.8912 0003123 282.7942  77.2561 15.27572535 75135
STARLINK-31676          
1 59900U 24100R   25263.34311437 -.00002035  00000+0 -64498-4 0  9990
2 59900  43.0069   7.5056 0001092 264.6657  95.4070 15.27558243 74994
STARLINK-31908          
1 59901U 24100S   25263.32736915 -.00000234  00000+0  10128-5 0  9991
2 59901  43.0031   0.4624 0000831 238.7643 121.3127 15.27575169 75173
STARLINK-31914          
1 59902U 24100T   25263.35466866 -.00002526  00000+0 -82271-4 0  9994
2 59902  43.0044   7.5873 0001206 261.0977  98.9738 15.27589948 74994
STARLINK-31850          
1 59903U 24100U   25263.31611791 -.00001286  00000+0 -37232-4 0  9999
2 59903  43.0003   7.2848 0000915 271.6021  88.4726 15.27573186 75047
STARLINK-31924          
1 59904U 24100V   25263.59051621  .00000428  00000+0  25080-4 0  9993
2 59904  43.0024   5.9181 0000711 231.2788 128.8000 15.27577017 75133
STARLINK-31898          
1 59905U 24100W   25263.27306454 -.00000900  00000+0 -23179-4 0  9990
2 59905  43.0000   4.3751 0001138 174.8330 185.2534 15.27576765 75120
